%YAML 1.1
%TAG !u! tag:unity3d.com,2011:
--- !u!114 &11400000
MonoBehaviour:
  m_ObjectHideFlags: 0
  m_CorrespondingSourceObject: {fileID: 0}
  m_PrefabInstance: {fileID: 0}
  m_PrefabAsset: {fileID: 0}
  m_GameObject: {fileID: 0}
  m_Enabled: 1
  m_EditorHideFlags: 0
  m_Script: {fileID: 11500000, guid: 3c3c350472192c149822725a54cc75ed, type: 3}
  m_Name: Deimos
  m_EditorClassIdentifier: 
  mass: 1.4762e+15
  diameter: 12400
  orbit:
    semimajorAxis: 23500000
    eccentricity: 0.015
    inclination: 0.03141592654
    lonAscNode: 0.9494591131
    argPeriapsis: 0
    trueAnomaly: 3.577924967
    meanAnomaly: 0
    anomaly: 0
    semiminorAxis: 0
    meanMotion: 0
    semiLatusRectum: 0
    timeToPeriapsis: 0
    period: 0
  argPrecessionPeriod: 0
  ascPrecessionPeriod: 54.537
  material: {fileID: 2100000, guid: 4769044b3428990408a63fa0aca903e7, type: 2}
  bodiesOnOrbit: []
  type: 2
